RADUGA 1 [-]            
1 08513U 75123A   23136.87904235 -.00000142  00000+0  00000+0 0  9994
2 08513   5.7096 283.9416 0007120 218.7567 127.3704  1.00295137183504
RADUGA 2 [-]            
1 09416U 76092A   23136.88142581 -.00000181  00000+0  00000+0 0  9995
2 09416   6.3754 286.0048 0026155   9.0402 340.6769  1.00255625118033
RADUGA 3 [-]            
1 10159U 77071A   23136.61451531  .00000138  00000+0  00000+0 0  9999
2 10159   6.9974 288.7304 0008668 238.5361 327.3387  1.00235398165737
RADUGA 4 [-]            
1 10987U 78073A   23136.97688256 -.00000285  00000+0  00000+0 0  9990
2 10987   7.6319 292.3972 0007903  15.4345  12.2251  1.00338081108284
RADUGA 5 [-]            
1 11343U 79035A   23136.54836097 -.00000025  00000+0  00000+0 0  9999
2 11343   8.0998 295.2869 0007096 172.9375  30.1162  1.00256135118045
RADUGA 6 [-]            
1 11708U 80016A   23137.45933723 -.00000355  00000+0  00000+0 0  9996
2 11708   8.4686 298.4798 0002763 184.9144  24.4261  1.00270683110858
RADUGA 7 [-]            
1 12003U 80081A   23136.81466994 -.00000265  00000+0  00000+0 0  9997
2 12003   8.6626 300.5183 0008196 265.4864 285.8920  1.00233799112119
RADUGA 8 [-]            
1 12351U 81027A   23136.71485172  .00000056  00000+0  00000+0 0  9999
2 12351   8.9969 301.0631 0081093 236.7060 136.1484  1.00356285111239
RADUGA 9 [-]            
1 12618U 81069A   23136.89569358 -.00000378  00000+0  00000+0 0  9997
2 12618   9.2301 304.1803 0005139 148.8328 217.0822  1.00288089 36047
RADUGA 10 [-]           
1 12897U 81102A   23136.54984278 -.00000114  00000+0  00000+0 0  9996
2 12897   9.3213 305.2109 0006121 179.8379  22.7192  1.00247985106030
RADUGA 11 [-]           
1 13669U 82113A   23136.71790250 -.00000149  00000+0  00000+0 0  9999
2 13669  11.4435 319.3877 0037715 261.1887 110.1070  0.97709768110521
RADUGA 12 [-]           
1 13974U 83028A   23136.87956506 -.00000204  00000+0  00000+0 0  9991
2 13974  10.5252 315.2390 0003598 115.3207 204.2779  1.00283288158072
RADUGA 13 [-]           
1 14307U 83088A   23136.68164194 -.00000153  00000+0  00000+0 0  9994
2 14307  11.7069 320.9078 0015882  51.1468 123.7019  0.98175012107878
RADUGA 14 [-]           
1 14725U 84016A   23136.54879681 -.00000058  00000+0  00000+0 0  9993
2 14725  10.7610 319.1302 0006242 136.9147  44.4743  1.00249491106799
RADUGA 15 [-]           
1 15057U 84063A   23136.88915907 -.00000309  00000+0  00000+0 0  9992
2 15057  10.8881 320.1149 0006214 158.6111 174.4622  1.00179257129798
RADUGA 16 [-]           
1 15946U 85070A   23137.24845858 -.00000113  00000+0  00000+0 0  9999
2 15946  11.3934 324.8533 0002804 151.6201  98.4331  1.00381068110913
RADUGA 17 [-]           
1 16250U 85107A   23136.78459809 -.00000042  00000+0  00000+0 0  9995
2 16250  11.5282 326.2853 0014197 185.7469 177.8268  1.00188964140513
RADUGA 18 [-]           
1 16497U 86007A   23136.51750463 -.00000054  00000+0  00000+0 0  9992
2 16497  12.3547 329.0431 0075631 171.4290 192.3102  0.98811425134777
RADUGA 19 [-]           
1 17046U 86082A   23137.08662419 -.00000010  00000+0  00000+0 0  9994
2 17046  12.8202 333.0331 0014443 150.7985  32.0739  0.98459033131855
RADUGA 20 [-]           
1 17611U 87028A   23136.61782758 -.00000094  00000+0  00000+0 0  9992
2 17611  14.8611 336.5098 0031920 142.6440  33.1307  0.95960922127491
RADUGA 21 [-]           
1 18631U 87100A   23137.01802546 -.00000194  00000+0  00000+0 0  9990
2 18631  12.9241 333.7277 0004200 132.2402  40.1260  1.00360344129772
RADUGA 22 [-]           
1 19596U 88095A   23136.68661032  .00000113  00000+0  00000+0 0  9990
2 19596  12.9513 338.1499 0008831 139.6419  44.5583  1.00184390110347
RADUGA 23 [-]           
1 19928U 89030A   23136.98751778 -.00000382  00000+0  00000+0 0  9998
2 19928  13.1188 339.9645 0022063 166.6119 195.7734  1.00317499123540
RADUGA-1 1 [-]          
1 20083U 89048A   23136.75407589 -.00000128  00000+0  00000+0 0  9992
2 20083  13.9028 343.0817 0023349 122.2400  60.1205  0.98709933120135
RADUGA 24 [-]           
1 20367U 89098A   23136.68870229  .00000059  00000+0  00000+0 0  9991
2 20367  13.7209 342.1729 0002571 140.7814  51.1538  1.00315582121664
RADUGA 25 [-]           
1 20499U 90016A   23136.71947147  .00000096  00000+0  00000+0 0  9998
2 20499  13.4965 342.8807 0006134 139.4408 216.9933  1.00207453121592
RADUGA 26 [-]           
1 21016U 90112A   23136.88217927 -.00000310  00000+0  00000+0 0  9995
2 21016  13.8460 346.1270 0008239 100.7569 201.9815  1.00270532118957
RADUGA-1 2 [-]          
1 21038U 90116A   23137.05376306 -.00000222  00000+0  00000+0 0  9992
2 21038  13.8867 346.1928 0009278 110.2523 242.0364  1.00326379118600
RADUGA 27 [-]           
1 21132U 91014A   23136.62209865 -.00000167  00000+0  00000+0 0  9990
2 21132  14.3921 345.6372 0004724 102.2699  87.4899  1.00379047118003
RADUGA 28 [-]           
1 21821U 91087A   23136.75660367  .00000113  00000+0  00000+0 0  9997
2 21821  14.2021 349.4648 0008585 125.5213  64.4775  1.00245258115017
RADUGA 29 [-]           
1 22557U 93013A   23136.90150458 -.00000383  00000+0  00000+0 0  9997
2 22557  14.4560 353.6328 0007995 122.5070 204.6215  1.00331766110379
RADUGA 30 [-]           
1 22836U 93062A   23136.76744003 -.00000076  00000+0  00000+0 0  9999
2 22836  14.5227 355.6243 0001561  50.7114 174.1221  1.00279931 34695
RADUGA-1 3 [-]          
1 22981U 94008A   23136.68905094  .00000059  00000+0  00000+0 0  9991
2 22981  14.6143 356.7699 0005135 104.5276  74.2741  1.00240854107172
RADUGA 31 [-]           
1 23010U 94012A   23136.89106603 -.00000360  00000+0  00000+0 0  9998
2 23010  14.5824 356.7607 0006328 103.6386 200.0280  1.00281292107041
RADUGA 32 [-]           
1 23448U 94087A   23137.12264001 -.00000080  00000+0  00000+0 0  9998
2 23448  14.6003 359.4938 0004604 196.6502 153.0519  1.00277613121646
RADUGA-1 4 [-]          
1 25642U 99010A   23136.88042611 -.00000340  00000+0  00000+0 0  9999
2 25642  15.3114  10.9498 0000184 120.7125 159.8733  1.00333924 88645
RADUGA-1 5 [-]          
1 26477U 00049A   23136.87479883 -.00000265  00000+0  00000+0 0  9990
2 26477  13.3210  16.1390 0006254  66.6411 196.2897  1.00331804 83114
RADUGA-1 6 [-]          
1 26936U 01045A   23136.05327090 -.00000163  00000+0  00000+0 0  9996
2 26936  13.5671  22.5485 0015883 167.4997  23.9816  0.97745563 77576
RADUGA-1 7 [-]          
1 28194U 04010A   23136.83131841  .00000101  00000+0  00000+0 0  9993
2 28194  12.3572  29.2883 0001587 141.3436  51.0848  1.00182377 70092
RADUGA-1M 1 [-]         
1 32373U 07058A   23136.93739802  .00000087  00000+0  00000+0 0  9997
2 32373   7.6398  61.6359 0004995   6.0064   5.0333  0.99395752 57113
RADUGA-1 8 [-]          
1 34264U 09010A   23136.23388105 -.00000227  00000+0  00000+0 0  9994
2 34264   9.8837  51.5173 0014442   9.2942 184.9187  0.99820543 51913
RADUGA-1M 2 [+]         
1 36358U 10002A   23137.05376306 -.00000185  00000+0  00000+0 0  9997
2 36358   0.6973  94.4118 0003609 327.9769 276.4369  1.00268492 48708
RADUGA-1M 3 [+]         
1 39375U 13062A   23137.04841182  .00000154  00000+0  00000+0 0  9991
2 39375   3.0782  85.9853 0001524 217.0060 343.8823  1.00272722 34826
